[{"OBJECT_NAME":"SHIJIAN-6 04B (SJ-6 04B)","OBJECT_ID":"2010-051B","EPOCH":"2026-03-09T23:26:29.179104","MEAN_MOTION":14.99121194,"ECCENTRICITY":0.00088219,"INCLINATION":97.8755,"RA_OF_ASC_NODE":73.3683,"ARG_OF_PERICENTER":293.8275,"MEAN_ANOMALY":66.2023,"EPHEMERIS_TYPE":0,"CLASSIFICATION_TYPE":"U","NORAD_CAT_ID":37180,"ELEMENT_SET_NO":999,"REV_AT_EPOCH":84081,"BSTAR":0.00010220627,"MEAN_MOTION_DOT":1.181e-5,"MEAN_MOTION_DDOT":0},{"OBJECT_NAME":"STARLINK-32932","OBJECT_ID":"2025-037G","EPOCH":"2026-03-09T23:21:37.969632","MEAN_MOTION":14.98322007,"ECCENTRICITY":0.00027887,"INCLINATION":70.0031,"RA_OF_ASC_NODE":353.7766,"ARG_OF_PERICENTER":257.9501,"MEAN_ANOMALY":102.1346,"EPHEMERIS_TYPE":0,"CLASSIFICATION_TYPE":"U","NORAD_CAT_ID":63083,"ELEMENT_SET_NO":999,"REV_AT_EPOCH":5850,"BSTAR":0.00098467625,"MEAN_MOTION_DOT":0.00011673,"MEAN_MOTION_DDOT":0}]
